[{"OBJECT_NAME":"YAOGAN-36 03A","OBJECT_ID":"2022-160A","EPOCH":"2026-03-09T21:08:19.248576","MEAN_MOTION":15.31468155,"ECCENTRICITY":0.00027649,"INCLINATION":34.9999,"RA_OF_ASC_NODE":237.2222,"ARG_OF_PERICENTER":84.1273,"MEAN_ANOMALY":275.9759,"EPHEMERIS_TYPE":0,"CLASSIFICATION_TYPE":"U","NORAD_CAT_ID":54372,"ELEMENT_SET_NO":999,"REV_AT_EPOCH":18296,"BSTAR":0.00056596392,"MEAN_MOTION_DOT":0.00017652,"MEAN_MOTION_DDOT":0},{"OBJECT_NAME":"STARLINK-34390","OBJECT_ID":"2025-139C","EPOCH":"2026-03-09T12:50:16.484928","MEAN_MOTION":15.30148233,"ECCENTRICITY":7.255e-5,"INCLINATION":53.1583,"RA_OF_ASC_NODE":127.53,"ARG_OF_PERICENTER":82.6077,"MEAN_ANOMALY":277.5007,"EPHEMERIS_TYPE":0,"CLASSIFICATION_TYPE":"U","NORAD_CAT_ID":64666,"ELEMENT_SET_NO":999,"REV_AT_EPOCH":4032,"BSTAR":0.00085698892,"MEAN_MOTION_DOT":0.00025068,"MEAN_MOTION_DDOT":0}]
